ONEWEB-0298             
1 49087U 21075N   24026.45810546  .00000079  00000+0  16919-3 0  9994
2 49087  87.9224 179.4295 0001243  98.3401 261.7871 13.17650487118693
ONEWEB-0299             
1 49088U 21075P   24026.91529663  .00000004  00000+0 -21805-4 0  9993
2 49088  87.9222 179.3149 0001191 102.6017 257.5248 13.17649655119702
ONEWEB-0300             
1 49089U 21075Q   24026.79829374 -.00000302  00000+0 -87547-3 0  9998
2 49089  87.9027 164.2418 0001528 114.5010 245.6278 13.12444475121765
ONEWEB-0301             
1 49090U 21075R   24026.78241774 -.00000356  00000+0 -10242-2 0  9997
2 49090  87.9025 164.2469 0001782 111.3589 248.7729 13.12441636121120
ONEWEB-0302             
1 49091U 21075S   24026.76974043  .00000072  00000+0  16382-3 0  9993
2 49091  87.9027 164.2465 0001909 106.6647 253.4691 13.12442190121118
ONEWEB-0304             
1 49092U 21075T   24026.96592841  .00000071  00000+0  14907-3 0  9998
2 49092  87.9226 179.3148 0001190  85.9212 274.2056 13.17648949119695
ONEWEB-0305             
1 49093U 21075U   24026.50238952  .00000040  00000+0  71033-4 0  9999
2 49093  87.9224 179.3975 0000948  99.6986 260.4253 13.17650332118685
ONEWEB-0308             
1 49094U 21075V   24026.76336274  .00000286  00000+0  76080-3 0  9992
2 49094  87.9028 164.2490 0001561 104.6422 255.4880 13.12441755121122
